{
    "links": {
        "self": "http://www.neowsapp.com/rest/v1/neo/3693720?api_key=iIulBulltgU6a56xZRHN4H3l9WmuAYTsLGpBGhQ2"
    },
    "id": "3693720",
    "neo_reference_id": "3693720",
    "name": "(2014 UR7)",
    "designation": "2014 UR7",
    "nasa_jpl_url": "http://ssd.jpl.nasa.gov/sbdb.cgi?sstr=3693720",
    "absolute_magnitude_h": 26.1,
    "estimated_diameter": {
        "kilometers": {
            "estimated_diameter_min": 0.0160160338,
            "estimated_diameter_max": 0.0358129403
        },
        "meters": {
            "estimated_diameter_min": 16.0160337979,
            "estimated_diameter_max": 35.8129403019
        },
        "miles": {
            "estimated_diameter_min": 0.0099518989,
            "estimated_diameter_max": 0.0222531225
        },
        "feet": {
            "estimated_diameter_min": 52.5460443254,
            "estimated_diameter_max": 117.4965270602
        }
    },
    "is_potentially_hazardous_asteroid": false,
    "close_approach_data": [
        {
            "close_approach_date": "2014-10-10",
            "close_approach_date_full": "2014-Oct-10 01:54",
            "epoch_date_close_approach": 1412906040000,
            "relative_velocity": {
                "kilometers_per_second": "8.0095916896",
                "kilometers_per_hour": "28834.5300827253",
                "miles_per_hour": "17916.6556505689"
            },
            "miss_distance": {
                "astronomical": "0.0357180005",
                "lunar": "13.8943021945",
                "kilometers": "5343336.795458935",
                "miles": "3320195.525185903"
            },
            "orbiting_body": "Earth"
        }
    ],
    "orbital_data": {
        "orbit_id": "5",
        "orbit_determination_date": "2017-04-06 08:38:05",
        "first_observation_date": "2014-10-20",
        "last_observation_date": "2014-10-26",
        "data_arc_in_days": 6,
        "observations_used": 31,
        "orbit_uncertainty": "8",
        "minimum_orbit_intersection": ".0316568",
        "jupiter_tisserand_invariant": "4.641",
        "epoch_osculation": "2456951.5",
        "eccentricity": ".3249511381651907",
        "semi_major_axis": "1.422174691242082",
        "inclination": "6.43478045576687",
        "ascending_node_longitude": "208.263447779361",
        "orbital_period": "619.4807928161921",
        "perihelion_distance": ".960037406653239",
        "perihelion_argument": "127.0685546972937",
        "aphelion_distance": "1.884311975830926",
        "perihelion_time": "2456905.868001857601",
        "mean_anomaly": "26.5182060876872",
        "mean_motion": ".5811318190567639",
        "equinox": "J2000",
        "orbit_class": {
            "orbit_class_type": "APO",
            "orbit_class_description": "Near-Earth asteroid orbits which cross the Earth’s orbit similar to that of 1862 Apollo",
            "orbit_class_range": "a (semi-major axis) > 1.0 AU; q (perihelion) < 1.017 AU"
        }
    },
    "is_sentry_object": false
}